storename,street_numb,street_add,address_combined,city,st,ZIP,county,type,snap,addresses
north beacon market,15,north beacon st,15 north beacon st,allston,MA,2134,suffolk,cs,yes,"15 north beacon st, allston, MA 2134"
stop & shop 089,60,everett st,60 everett st,allston,MA,2134,suffolk,sm,yes,"60 everett st, allston, MA 2134"
glenville market,85,glenville av,85 glenville av,allston,MA,2134,suffolk,sg,yes,"85 glenville av, allston, MA 2134"
"moscow international deli, inc",133,harvard avenue,133 harvard avenue,allston,MA,2134,suffolk,sg,yes,"133 harvard avenue, allston, MA 2134"
sunrise market,152,brighton ave,152 brighton ave,allston,MA,2134,suffolk,cs,yes,"152 brighton ave, allston, MA 2134"
store 24 224,157,brighton ave.,157 brighton ave.,allston,MA,2134,suffolk,cs,yes,"157 brighton ave., allston, MA 2134"
allston market,169,harvard av,169 harvard av,allston,MA,2134,suffolk,cs,yes,"169 harvard av, allston, MA 2134"
brooks pharmacy 526,181,brighton av,181 brighton av,allston,MA,2135,suffolk,co,yes,"181 brighton av, allston, MA 2135"
union market,250,brighton ave,250 brighton ave,allston,MA,2134,suffolk,sg,yes,"250 brighton ave, allston, MA 2134"
bazaar on cambridge street,424,cambridge st,424 cambridge st,allston,MA,2134,suffolk,lg,yes,"424 cambridge st, allston, MA 2134"
mayfair foods,506,cambridge st,506 cambridge st,allston,MA,2134,suffolk,mg,yes,"506 cambridge st, allston, MA 2134"
tedeschi food shop 060,509,cambridge street,509 cambridge street,allston,MA,2134,suffolk,cs,yes,"509 cambridge street, allston, MA 2134"
cheema's supermarket,562,cambridge street,562 cambridge street,allston,MA,2134,suffolk,sg,yes,"562 cambridge street, allston, MA 2134"
"super 88 market ii, inc",1095,commonwealth ave,1095 commonwealth ave,allston,MA,2134,suffolk,ss,yes,"1095 commonwealth ave, allston, MA 2134"
berezka international food store,1215,commonwealth ave,1215 commonwealth ave,allston,MA,2134,suffolk,mg,yes,"1215 commonwealth ave, allston, MA 2134"
store 24 14,1219,commonwealth avenue,1219 commonwealth avenue,allston,MA,2134,suffolk,cs,yes,"1219 commonwealth avenue, allston, MA 2134"
cvs pharmacy 1024,1266,commonwealth ave,1266 commonwealth ave,allston,MA,2134,suffolk,co,yes,"1266 commonwealth ave, allston, MA 2134"
7-eleven #33362-b,10,milk st,10 milk st,boston,MA,2108,suffolk,cs,yes,"10 milk st, boston, MA 2108"
whole food market 10031,15,westland ave,15 westland ave,boston,MA,2115,suffolk,ss,yes,"15 westland ave, boston, MA 2115"
see sun market,25,harrison ave,25 harrison ave,boston,MA,2111,suffolk,lg,yes,"25 harrison ave, boston, MA 2111"
shaw's supermarkets 7576/538,33,kilarnock st,33 kilarnock st,boston,MA,2215,suffolk,ss,yes,"33 kilarnock st, boston, MA 2215"
downtown convenience,40,boylston st,40 boylston st,boston,MA,2116,suffolk,cs,yes,"40 boylston st, boston, MA 2116"
boston mart,42,court street,42 court street,boston,MA,2108,suffolk,cs,yes,"42 court street, boston, MA 2108"
7-eleven 33058b,50,summer st,50 summer st,boston,MA,2110,suffolk,cs,yes,"50 summer st, boston, MA 2110"
88 supermarket,50,herald street,50 herald street,boston,MA,2118,suffolk,ss,yes,"50 herald street, boston, MA 2118"
7-eleven 32457c,55,berkeley st,55 berkeley st,boston,MA,2116,suffolk,cs,yes,"55 berkeley st, boston, MA 2116"
"chung wah hong co.,",55,beach st,55 beach st,boston,MA,2111,suffolk,lg,yes,"55 beach st, boston, MA 2111"
medina's market,65,west dedham st,65 west dedham st,boston,MA,2118,suffolk,mg,yes,"65 west dedham st, boston, MA 2118"
shaw's supermarket 7602/583,65,huntington ave,65 huntington ave,boston,MA,2199,suffolk,ss,yes,"65 huntington ave, boston, MA 2199"
laskers variety inc,67,appleton st,67 appleton st,boston,MA,2116,suffolk,cs,yes,"67 appleton st, boston, MA 2116"
garden halal meat market llc,96,blackstone st,96 blackstone st,boston,MA,2109,suffolk,mg,yes,"96 blackstone st, boston, MA 2109"
7-eleven 33519b,103,state st,103 state st,boston,MA,2109,suffolk,cs,yes,"103 state st, boston, MA 2109"
c-mart supermarket ii,109,lincoln st,109 lincoln st,boston,MA,2111,suffolk,sm,yes,"109 lincoln st, boston, MA 2111"
casablanca meat & fish market,116,blackstone st,116 blackstone st,boston,MA,2109,suffolk,sg,yes,"116 blackstone st, boston, MA 2109"
7-eleven 33392b,125,tremont st,125 tremont st,boston,MA,2108,suffolk,cs,yes,"125 tremont st, boston, MA 2108"
lord jeff,129,newmarket square,129 newmarket square,boston,MA,2118,suffolk,sm,yes,"129 newmarket square, boston, MA 2118"
city convenience,130,dartmouth st,130 dartmouth st,boston,MA,2116,suffolk,cs,yes,"130 dartmouth st, boston, MA 2116"
store 24 65,141,massachusetts avenue,141 massachusetts avenue,boston,MA,2115,suffolk,co,yes,"141 massachusetts avenue, boston, MA 2115"
store apple three,144,tremont street,144 tremont street,boston,MA,2111,suffolk,cs,yes,"144 tremont street, boston, MA 2111"
store 24 211,177,state st unit 1a,177 state st unit 1a,boston,MA,2109,suffolk,cs,yes,"177 state st unit 1a, boston, MA 2109"
whole foods market 10158,181,cambridge st,181 cambridge st,boston,MA,2114,suffolk,ss,yes,"181 cambridge st, boston, MA 2114"
cvs pharmacy 1258,191,cambridge st,191 cambridge st,boston,MA,2114,suffolk,co,yes,"191 cambridge st, boston, MA 2114"
cvs pharmacy 1900,218,hanover st,218 hanover st,boston,MA,2113,suffolk,co,yes,"218 hanover st, boston, MA 2113"
cvs pharmacy 1259,231,massachusetts avenue,231 massachusetts avenue,boston,MA,2115,suffolk,co,yes,"231 massachusetts avenue, boston, MA 2115"
white hen pantry 91-7902-8,250,cambridge st,250 cambridge st,boston,MA,2114,suffolk,sg,yes,"250 cambridge st, boston, MA 2114"
"tai tung pharmacy inc.,",256,harrison ave,256 harrison ave,boston,MA,2111,suffolk,cs,yes,"256 harrison ave, boston, MA 2111"
college convenience store,281,huntington ave,281 huntington ave,boston,MA,2115,suffolk,sg,yes,"281 huntington ave, boston, MA 2115"
symphony market ii,291,huntington ave,291 huntington ave,boston,MA,2115,suffolk,cs,yes,"291 huntington ave, boston, MA 2115"
cvs pharmacy #49 0049,340,washington st,340 washington st,boston,MA,2108,suffolk,co,yes,"340 washington st, boston, MA 2108"
cvs pharmacy 524,350,longwood ave,350 longwood ave,boston,MA,2215,suffolk,co,yes,"350 longwood ave, boston, MA 2215"
store 24 89,357,tremont st,357 tremont st,boston,MA,2116,suffolk,cs,yes,"357 tremont st, boston, MA 2116"
cvs pharmacy 3307,400,tremont st,400 tremont st,boston,MA,2116,suffolk,co,yes,"400 tremont st, boston, MA 2116"
cvs pharmacy 2592,468,blue hill ave,468 blue hill ave,boston,MA,2121,suffolk,co,yes,"468 blue hill ave, boston, MA 2121"
7-eleven 33568a,473,west broadway,473 west broadway,boston,MA,2127,suffolk,cs,yes,"473 west broadway, boston, MA 2127"
7-eleven 33615b,532,commonwealth ave,532 commonwealth ave,boston,MA,2215,suffolk,co,yes,"532 commonwealth ave, boston, MA 2215"
mass food market,603,massachusetts ave,603 massachusetts ave,boston,MA,2148,suffolk,cs,yes,"603 massachusetts ave, boston, MA 2148"
"casa cuong inc.,",629,tremont street,629 tremont street,boston,MA,2118,suffolk,sg,yes,"629 tremont street, boston, MA 2118"
cvs pharmacy 5874,631,washington street,631 washington street,boston,MA,2111,suffolk,co,yes,"631 washington street, boston, MA 2111"
c-mart supermarket,692,washington st,692 washington st,boston,MA,2111,suffolk,ss,yes,"692 washington st, boston, MA 2111"
store 24 5,717,boylston st,717 boylston st,boston,MA,2116,suffolk,cs,yes,"717 boylston st, boston, MA 2116"
figueroa enterprises inc,739,parker street,739 parker street,boston,MA,2120,suffolk,sg,yes,"739 parker street, boston, MA 2120"
brothers mini market,802,tremont  st,802 tremont  st,boston,MA,2118,suffolk,sg,yes,"802 tremont  st, boston, MA 2118"
the corner store of bha,867,blue hill ave,867 blue hill ave,boston,MA,2124,suffolk,cs,yes,"867 blue hill ave, boston, MA 2124"
trader joe's 510,899,boylston st,899 boylston st,boston,MA,2115,suffolk,sm,yes,"899 boylston st, boston, MA 2115"
cvs pharmacy 1876,900,commonwealth ave,900 commonwealth ave,boston,MA,2215,suffolk,co,yes,"900 commonwealth ave, boston, MA 2215"
dorchester market,951,dorchester ave,951 dorchester ave,boston,MA,2125,suffolk,mg,yes,"951 dorchester ave, boston, MA 2125"
pena's market,1053,tremont street,1053 tremont street,boston,MA,2120,suffolk,sg,yes,"1053 tremont street, boston, MA 2120"
shaw's supermarket 7588/565,1065,commonwealth ave,1065 commonwealth ave,boston,MA,2215,suffolk,ss,yes,"1065 commonwealth ave, boston, MA 2215"
mings supermarket inc,1102,washington st,1102 washington st,boston,MA,2118,suffolk,ss,yes,"1102 washington st, boston, MA 2118"
sids smoke shop,1120,washington st,1120 washington st,boston,MA,2118,suffolk,cs,yes,"1120 washington st, boston, MA 2118"
brooks pharmacy 530,1295,boylston st,1295 boylston st,boston,MA,2215,suffolk,co,yes,"1295 boylston st, boston, MA 2215"
7 eleven 33425a,1306,washington st,1306 washington st,boston,MA,2118,suffolk,cs,yes,"1306 washington st, boston, MA 2118"
"morse fish co. inc.,",1401,washington street,1401 washington street,boston,MA,2118,suffolk,cs,yes,"1401 washington street, boston, MA 2118"
walgreens 06072,1603,washington street,1603 washington street,boston,MA,2118,suffolk,co,yes,"1603 washington street, boston, MA 2118"
super stop & shop 412,1620,tremont st,1620 tremont st,boston,MA,2120,suffolk,sm,yes,"1620 tremont st, boston, MA 2120"
don quixote market,1641,washington street,1641 washington street,boston,MA,2118,suffolk,sg,yes,"1641 washington street, boston, MA 2118"
centre market,1660,dorchester av,1660 dorchester av,boston,MA,2122,suffolk,sg,yes,"1660 dorchester av, boston, MA 2122"
7 eleven 33467a,1747,washington st,1747 washington st,boston,MA,2118,suffolk,cs,yes,"1747 washington st, boston, MA 2118"
cheng kwong seafood mrkt,NA,essex st, essex st,boston,MA,2111,suffolk,ss,yes," essex st, boston, MA 2111"
walgreens 07189,NA,NA,NA,boston,MA,2120,suffolk,co,yes,"NA, boston, MA 2120"
store 24 68,NA,cambridge street, cambridge street,boston,MA,2114,suffolk,mg,yes," cambridge street, boston, MA 2114"
nubian notion,NA,dudley st, dudley st,boston,MA,2118,suffolk,mg,yes," dudley st, boston, MA 2118"
whole foods market 10015,15,washington st,15 washington st,brighton,MA,2135,suffolk,ss,yes,"15 washington st, brighton, MA 2135"
babushka deli,62,washington street,62 washington street,brighton,MA,2135,suffolk,cs,yes,"62 washington street, brighton, MA 2135"
international & natural food inc,157,sutherland rd,157 sutherland rd,brighton,MA,2135,suffolk,mg,yes,"157 sutherland rd, brighton, MA 2135"
lakomka,183,chestnut hill av,183 chestnut hill av,brighton,MA,2135,suffolk,cs,yes,"183 chestnut hill av, brighton, MA 2135"
kikis kwik-mart,236,faneuil street,236 faneuil street,brighton,MA,2135,suffolk,cs,yes,"236 faneuil street, brighton, MA 2135"
store 24 64,241,market street,241 market street,brighton,MA,2135,suffolk,cs,yes,"241 market street, brighton, MA 2135"
faneuil street market,243,faneuil street,243 faneuil street,brighton,MA,2135,suffolk,mg,yes,"243 faneuil street, brighton, MA 2135"
palace spa,415,washington st,415 washington st,brighton,MA,2135,suffolk,cs,yes,"415 washington st, brighton, MA 2135"
cvs pharmacy 1889,427,washington street,427 washington street,brighton,MA,2135,suffolk,co,yes,"427 washington street, brighton, MA 2135"
white hen pantry 1-0306-3,462,washington st,462 washington st,brighton,MA,2135,suffolk,cs,yes,"462 washington st, brighton, MA 2135"
father & son market,1437,commonwealth ave,1437 commonwealth ave,brighton,MA,2135,suffolk,mg,yes,"1437 commonwealth ave, brighton, MA 2135"
lee's supermarket,1585,commonwealth avenue,1585 commonwealth avenue,brighton,MA,2135,suffolk,sg,yes,"1585 commonwealth avenue, brighton, MA 2135"
7-eleven 33466b,1610,commonwealth ave,1610 commonwealth ave,brighton,MA,2135,suffolk,cs,yes,"1610 commonwealth ave, brighton, MA 2135"
store 24 21,1912,beacon street,1912 beacon street,brighton,MA,2135,suffolk,mg,yes,"1912 beacon street, brighton, MA 2135"
cvs pharmacy 55,1924,beacon street,1924 beacon street,brighton,MA,2135,suffolk,co,yes,"1924 beacon street, brighton, MA 2135"
store 24 44,140,main street,140 main street,charlestown,MA,2129,suffolk,cs,yes,"140 main street, charlestown, MA 2129"
store 24 210,1,first ave bldg #34,1 first ave bldg #34,charlestown,MA,2129,suffolk,cs,yes,"1 first ave bldg #34, charlestown, MA 2129"
foodmaster supermarket #7 07,51,austin street,51 austin street,charlestown,MA,2129,suffolk,ss,yes,"51 austin street, charlestown, MA 2129"
liriano brothers market,160,bunker hill st,160 bunker hill st,charlestown,MA,2129,suffolk,cs,yes,"160 bunker hill st, charlestown, MA 2129"
bunker hill grocery,190,bunker hill st,190 bunker hill st,charlestown,MA,2129,suffolk,cs,yes,"190 bunker hill st, charlestown, MA 2129"
newtowne food mart,87,medford street,87 medford street,charlstown,MA,2129,suffolk,cs,yes,"87 medford street, charlstown, MA 2129"
angels market inc,0,glenway st,0 glenway st,dorchester,MA,2121,suffolk,sg,yes,"0 glenway st, dorchester, MA 2121"
pleasant view market,1,savin hill ave,1 savin hill ave,dorchester,MA,2125,suffolk,cs,yes,"1 savin hill ave, dorchester, MA 2125"
la bamba market,1,lorne street,1 lorne street,dorchester,MA,2124,suffolk,sg,yes,"1 lorne street, dorchester, MA 2124"
shaw's supermarket 7604/586,4,river st,4 river st,dorchester,MA,2124,suffolk,ss,yes,"4 river st, dorchester, MA 2124"
target 1898,7,allstate rd,7 allstate rd,dorchester,MA,2125,suffolk,ss,yes,"7 allstate rd, dorchester, MA 2125"
aj variety,7,bowdoin st,7 bowdoin st,dorchester,MA,2124,suffolk,cs,yes,"7 bowdoin st, dorchester, MA 2124"
dolly market,16,dacia street,16 dacia street,dorchester,MA,2125,suffolk,sg,yes,"16 dacia street, dorchester, MA 2125"
harbor point food mart,17,harbor point blvd,17 harbor point blvd,dorchester,MA,2125,suffolk,cs,yes,"17 harbor point blvd, dorchester, MA 2125"
star market 7587/564,45,morrissey blvd,45 morrissey blvd,dorchester,MA,2125,suffolk,ss,yes,"45 morrissey blvd, dorchester, MA 2125"
brothers super market,46,washington street,46 washington street,dorchester,MA,2121,suffolk,mg,yes,"46 washington street, dorchester, MA 2121"
harvard street community market,55,harvard st,55 harvard st,dorchester,MA,2124,suffolk,cs,yes,"55 harvard st, dorchester, MA 2124"
tropical grocery store,67,hancock st,67 hancock st,dorchester,MA,2125,suffolk,sg,yes,"67 hancock st, dorchester, MA 2125"
alves market,77,stoughton street,77 stoughton street,dorchester,MA,2125,suffolk,sg,yes,"77 stoughton street, dorchester, MA 2125"
tj convenience store,80,welles av,80 welles av,dorchester,MA,2124,suffolk,sg,yes,"80 welles av, dorchester, MA 2124"
c & j suprette,90,glenway street,90 glenway street,dorchester,MA,2121,suffolk,sg,yes,"90 glenway street, dorchester, MA 2121"
super 88 l.l.c.,101,allstate road,101 allstate road,dorchester,MA,2125,suffolk,ss,yes,"101 allstate road, dorchester, MA 2125"
savin hill variety,110,savin hill ave.,110 savin hill ave.,dorchester,MA,2125,suffolk,cs,yes,"110 savin hill ave., dorchester, MA 2125"
"ada's tropical inc.,",118,norfolk street,118 norfolk street,dorchester,MA,2124,suffolk,mg,yes,"118 norfolk street, dorchester, MA 2124"
dj's market,120,boston st,120 boston st,dorchester,MA,2125,suffolk,cs,yes,"120 boston st, dorchester, MA 2125"
rosely grocery store,120,washington st,120 washington st,dorchester,MA,2121,suffolk,cs,yes,"120 washington st, dorchester, MA 2121"
happy superette,122,seaver street,122 seaver street,dorchester,MA,2121,suffolk,cs,yes,"122 seaver street, dorchester, MA 2121"
quick stop market,124,harvard st,124 harvard st,dorchester,MA,2124,suffolk,cs,yes,"124 harvard st, dorchester, MA 2124"
walgreens 06805,130,bowdoin st,130 bowdoin st,dorchester,MA,2122,suffolk,co,yes,"130 bowdoin st, dorchester, MA 2122"
matos market,140,norfolk st,140 norfolk st,dorchester,MA,2124,suffolk,sg,yes,"140 norfolk st, dorchester, MA 2124"
our neighborhood variety,140,harvard st,140 harvard st,dorchester,MA,2124,suffolk,sg,yes,"140 harvard st, dorchester, MA 2124"
skb food store,156,washington st,156 washington st,dorchester,MA,2121,suffolk,mg,yes,"156 washington st, dorchester, MA 2121"
corner store of nma,166,norfolk st,166 norfolk st,dorchester,MA,2124,suffolk,cs,yes,"166 norfolk st, dorchester, MA 2124"
our neighborhood variety,185,howard ave,185 howard ave,dorchester,MA,2125,suffolk,sg,yes,"185 howard ave, dorchester, MA 2125"
store 24 24,187,e cottage st,187 e cottage st,dorchester,MA,2122,suffolk,cs,yes,"187 e cottage st, dorchester, MA 2122"
happy superrette #4,198,humboldt ave,198 humboldt ave,dorchester,MA,2121,suffolk,sg,yes,"198 humboldt ave, dorchester, MA 2121"
new family supermarket,205,humboldt ave,205 humboldt ave,dorchester,MA,2121,suffolk,lg,yes,"205 humboldt ave, dorchester, MA 2121"
franklin's liquor,212,columbia rd,212 columbia rd,dorchester,MA,2121,suffolk,cs,yes,"212 columbia rd, dorchester, MA 2121"
caribbean market,217,bowdoin st,217 bowdoin st,dorchester,MA,2121,suffolk,sg,yes,"217 bowdoin st, dorchester, MA 2121"
pegueros market,218,bowdoin st,218 bowdoin st,dorchester,MA,2122,suffolk,cs,yes,"218 bowdoin st, dorchester, MA 2122"
quincy variety,236,quincy st,236 quincy st,dorchester,MA,2125,suffolk,sg,yes,"236 quincy st, dorchester, MA 2125"
bowdoin market,237,bowdoin st,237 bowdoin st,dorchester,MA,2122,suffolk,cs,yes,"237 bowdoin st, dorchester, MA 2122"
gomez gas convenience store,285,washington st,285 washington st,dorchester,MA,2121,suffolk,co,yes,"285 washington st, dorchester, MA 2121"
adams convenience store,295,adams st,295 adams st,dorchester,MA,2122,suffolk,cs,yes,"295 adams st, dorchester, MA 2122"
eduardos market,302,norfolk st,302 norfolk st,dorchester,MA,2124,suffolk,sg,yes,"302 norfolk st, dorchester, MA 2124"
s & k food mart,316,bowdoin st,316 bowdoin st,dorchester,MA,2122,suffolk,sg,yes,"316 bowdoin st, dorchester, MA 2122"
li'l peach 407,320,neponset av,320 neponset av,dorchester,MA,2122,suffolk,cs,yes,"320 neponset av, dorchester, MA 2122"
alex market,322,talbot ave,322 talbot ave,dorchester,MA,2124,suffolk,cs,yes,"322 talbot ave, dorchester, MA 2124"
leos grocery,341,blue hill ave,341 blue hill ave,dorchester,MA,2121,suffolk,cs,yes,"341 blue hill ave, dorchester, MA 2121"
four corner market,345,washington st,345 washington st,dorchester,MA,2121,suffolk,cs,yes,"345 washington st, dorchester, MA 2121"
adams market,365,adams street,365 adams street,dorchester,MA,2122,suffolk,cs,yes,"365 adams street, dorchester, MA 2122"
luis market ii,367,blue hill ave,367 blue hill ave,dorchester,MA,2121,suffolk,sg,yes,"367 blue hill ave, dorchester, MA 2121"
"sandy's variety, inc.",378,washington street,378 washington street,dorchester,MA,2124,suffolk,cs,yes,"378 washington street, dorchester, MA 2124"
geneva grocery,385,geneva ave,385 geneva ave,dorchester,MA,2122,suffolk,mg,yes,"385 geneva ave, dorchester, MA 2122"
columbia rd market,387,columbia rd,387 columbia rd,dorchester,MA,2125,suffolk,sg,yes,"387 columbia rd, dorchester, MA 2125"
sobrino market,416,geneva ave,416 geneva ave,dorchester,MA,2122,suffolk,cs,yes,"416 geneva ave, dorchester, MA 2122"
saint peter market,419,adams street,419 adams street,dorchester,MA,2122,suffolk,sg,yes,"419 adams street, dorchester, MA 2122"
rosa supermarket,430,geneva ave,430 geneva ave,dorchester,MA,2122,suffolk,mg,yes,"430 geneva ave, dorchester, MA 2122"
vange variety,434,blue hill ave,434 blue hill ave,dorchester,MA,2121,suffolk,sg,yes,"434 blue hill ave, dorchester, MA 2121"
navarrete grocery,451,columbia rd,451 columbia rd,dorchester,MA,2125,suffolk,sg,yes,"451 columbia rd, dorchester, MA 2125"
vasquez grocery store,466,talbot ave,466 talbot ave,dorchester,MA,2124,suffolk,sg,yes,"466 talbot ave, dorchester, MA 2124"
t-stop market,481,geneva avenue,481 geneva avenue,dorchester,MA,2122,suffolk,sg,yes,"481 geneva avenue, dorchester, MA 2122"
kool stop convenience,487,washington street,487 washington street,dorchester,MA,2124,suffolk,cs,yes,"487 washington street, dorchester, MA 2124"
millenium market inc,496,blue hill av,496 blue hill av,dorchester,MA,2121,suffolk,cs,yes,"496 blue hill av, dorchester, MA 2121"
americas food basket,500,geneva ave,500 geneva ave,dorchester,MA,2122,suffolk,sm,yes,"500 geneva ave, dorchester, MA 2122"
brooks pharmacy 538,540,gallivan blvd,540 gallivan blvd,dorchester,MA,2124,suffolk,co,yes,"540 gallivan blvd, dorchester, MA 2124"
meli melo market,542,washington street,542 washington street,dorchester,MA,2124,suffolk,sg,yes,"542 washington street, dorchester, MA 2124"
super stop & shop 018,545,freeport st,545 freeport st,dorchester,MA,2122,suffolk,sm,yes,"545 freeport st, dorchester, MA 2122"
rosedale grocery,547,washington street,547 washington street,dorchester,MA,2124,suffolk,sg,yes,"547 washington street, dorchester, MA 2124"
dudley market,559,dudley street,559 dudley street,dorchester,MA,2125,suffolk,sg,yes,"559 dudley street, dorchester, MA 2125"
codman square market,573,washington st,573 washington st,dorchester,MA,2124,suffolk,sg,yes,"573 washington st, dorchester, MA 2124"
peoples tropical food,576,washington street,576 washington street,dorchester,MA,2124,suffolk,lg,yes,"576 washington street, dorchester, MA 2124"
walgreens 06349,583,washington street,583 washington street,dorchester,MA,2124,suffolk,co,yes,"583 washington street, dorchester, MA 2124"
fernandez brothers grocery,600,blue hill ave.,600 blue hill ave.,dorchester,MA,2121,suffolk,sg,yes,"600 blue hill ave., dorchester, MA 2121"
shawmut grocery,614,shawmut ave,614 shawmut ave,dorchester,MA,2118,suffolk,mg,yes,"614 shawmut ave, dorchester, MA 2118"
codman square pharmacy,624,washington street,624 washington street,dorchester,MA,2124,suffolk,cs,yes,"624 washington street, dorchester, MA 2124"
lynch's everyday,626,adams street,626 adams street,dorchester,MA,2122,suffolk,cs,yes,"626 adams street, dorchester, MA 2122"
ashmont market,630,adams street,630 adams street,dorchester,MA,2122,suffolk,sg,yes,"630 adams street, dorchester, MA 2122"
rosas family market,696,blue hill ave,696 blue hill ave,dorchester,MA,2121,suffolk,cs,yes,"696 blue hill ave, dorchester, MA 2121"
cvs pharmacy 2282,703,gallivan blvd,703 gallivan blvd,dorchester,MA,2124,suffolk,co,yes,"703 gallivan blvd, dorchester, MA 2124"
cvs pharmacy 2283,715,morrissey blvd,715 morrissey blvd,dorchester,MA,2122,suffolk,co,yes,"715 morrissey blvd, dorchester, MA 2122"
national wholesale liquidators,725,morrissey blvd,725 morrissey blvd,dorchester,MA,2122,suffolk,co,yes,"725 morrissey blvd, dorchester, MA 2122"
hermanos unidos,728,dudley st,728 dudley st,dorchester,MA,2125,suffolk,sg,yes,"728 dudley st, dorchester, MA 2125"
7-eleven 32874b,730,morrissey blvd,730 morrissey blvd,dorchester,MA,2122,suffolk,cs,yes,"730 morrissey blvd, dorchester, MA 2122"
el frutero market,740,dudley st,740 dudley st,dorchester,MA,2125,suffolk,cs,yes,"740 dudley st, dorchester, MA 2125"
walgreens 01847,757,gallivan blvd,757 gallivan blvd,dorchester,MA,2122,suffolk,co,yes,"757 gallivan blvd, dorchester, MA 2122"
rosario's grocery,760,washington st,760 washington st,dorchester,MA,2124,suffolk,sg,yes,"760 washington st, dorchester, MA 2124"
blue hill market,766,blue hill ave,766 blue hill ave,dorchester,MA,2124,suffolk,mg,yes,"766 blue hill ave, dorchester, MA 2124"
lambert's rainbow fruit,777,morrissey blvd,777 morrissey blvd,dorchester,MA,2122,suffolk,sm,yes,"777 morrissey blvd, dorchester, MA 2122"
cvs pharmacy 471,778,dudley street,778 dudley street,dorchester,MA,2124,suffolk,co,yes,"778 dudley street, dorchester, MA 2124"
"los caballeros market, inc.",796,washington st,796 washington st,dorchester,MA,2124,suffolk,sg,yes,"796 washington st, dorchester, MA 2124"
new store on the block,845,dorchester ave,845 dorchester ave,dorchester,MA,2125,suffolk,cs,yes,"845 dorchester ave, dorchester, MA 2125"
fuller market,851,washington st,851 washington st,dorchester,MA,2124,suffolk,mg,yes,"851 washington st, dorchester, MA 2124"
happy supermarket,868,blue hill ave,868 blue hill ave,dorchester,MA,2124,suffolk,sm,yes,"868 blue hill ave, dorchester, MA 2124"
cappys convenience store,949,dorchester ave,949 dorchester ave,dorchester,MA,2125,suffolk,cs,yes,"949 dorchester ave, dorchester, MA 2125"
las americas market,970,blue hill ave,970 blue hill ave,dorchester,MA,2124,suffolk,sg,yes,"970 blue hill ave, dorchester, MA 2124"
d & d convenience store,1002,dorchester ave,1002 dorchester ave,dorchester,MA,2125,suffolk,cs,yes,"1002 dorchester ave, dorchester, MA 2125"
tropic food market,1007,blue hill avenue,1007 blue hill avenue,dorchester,MA,2124,suffolk,sg,yes,"1007 blue hill avenue, dorchester, MA 2124"
phu cuong market,1051,dorchester av,1051 dorchester av,dorchester,MA,2125,suffolk,mg,yes,"1051 dorchester av, dorchester, MA 2125"
b & a bargain store,1089,dorchester avenue,1089 dorchester avenue,dorchester,MA,2125,suffolk,sg,yes,"1089 dorchester avenue, dorchester, MA 2125"
stop & shop supermarket 429,1100,massachusetts ave,1100 massachusetts ave,dorchester,MA,2122,suffolk,sm,yes,"1100 massachusetts ave, dorchester, MA 2122"
brooks pharmacy 537,1100,dorchester av,1100 dorchester av,dorchester,MA,2125,suffolk,co,yes,"1100 dorchester av, dorchester, MA 2125"
new vien dong supermarket,1159,dorchester ave,1159 dorchester ave,dorchester,MA,2125,suffolk,lg,yes,"1159 dorchester ave, dorchester, MA 2125"
truong thinh ii market,1305,dorchester ave.,1305 dorchester ave.,dorchester,MA,2122,suffolk,lg,yes,"1305 dorchester ave., dorchester, MA 2122"
store 24,1420,dorchester ave,1420 dorchester ave,dorchester,MA,2122,suffolk,cs,yes,"1420 dorchester ave, dorchester, MA 2122"
kim market corporation,1489,dorchester ave.,1489 dorchester ave.,dorchester,MA,2122,suffolk,cs,yes,"1489 dorchester ave., dorchester, MA 2122"
tedeschi food shop 304,1580,dorchester avenue,1580 dorchester avenue,dorchester,MA,2122,suffolk,mg,yes,"1580 dorchester avenue, dorchester, MA 2122"
convenient corner,1688,dorchester ave,1688 dorchester ave,dorchester,MA,2122,suffolk,sg,yes,"1688 dorchester ave, dorchester, MA 2122"
mass food mart,1732,dorchester ave,1732 dorchester ave,dorchester,MA,2124,suffolk,cs,yes,"1732 dorchester ave, dorchester, MA 2124"
viet huong market,1826,dorchester avenue,1826 dorchester avenue,dorchester,MA,2124,suffolk,mg,yes,"1826 dorchester avenue, dorchester, MA 2124"
store 24 inc #045,1886,dorchester avenue,1886 dorchester avenue,dorchester,MA,2122,suffolk,cs,yes,"1886 dorchester avenue, dorchester, MA 2122"
o'brien's liquor & grocery,1911,dorchester ave,1911 dorchester ave,dorchester,MA,2122,suffolk,cs,yes,"1911 dorchester ave, dorchester, MA 2122"
ashmont convenience store,1996,dorchester ave.,1996 dorchester ave.,dorchester,MA,2124,suffolk,mg,yes,"1996 dorchester ave., dorchester, MA 2124"
tedeschis 398,2235,dorchester av,2235 dorchester av,dorchester,MA,2122,suffolk,cs,yes,"2235 dorchester av, dorchester, MA 2122"
"preparations marketplace inc.,",NA,columbia road, columbia road,dorchester,MA,2121,suffolk,sg,yes," columbia road, dorchester, MA 2121"
smoke shop & more,216,adams st,216 adams st,dorchster,MA,2122,suffolk,cs,yes,"216 adams st, dorchster, MA 2122"
neptune convenience,3,neptune rd,3 neptune rd,east boston,MA,2128,suffolk,cs,yes,"3 neptune rd, east boston, MA 2128"
los paisanos market,11,meridian st,11 meridian st,east boston,MA,2128,suffolk,cs,yes,"11 meridian st, east boston, MA 2128"
ruiz market,14,breed st,14 breed st,east boston,MA,2128,suffolk,sg,yes,"14 breed st, east boston, MA 2128"
store 24 87,14,maverick square,14 maverick square,east boston,MA,2128,suffolk,mg,yes,"14 maverick square, east boston, MA 2128"
karen market,41,bennington st,41 bennington st,east boston,MA,2128,suffolk,sg,yes,"41 bennington st, east boston, MA 2128"
cibao grocery,42,maverick st,42 maverick st,east boston,MA,2128,suffolk,sg,yes,"42 maverick st, east boston, MA 2128"
two brothers market,75,marion st,75 marion st,east boston,MA,2128,suffolk,cs,yes,"75 marion st, east boston, MA 2128"
papas bakery,105,chelsea street,105 chelsea street,east boston,MA,2128,suffolk,sg,yes,"105 chelsea street, east boston, MA 2128"
white hen pantry 1-7304-4,120,byron st,120 byron st,east boston,MA,2128,suffolk,cs,yes,"120 byron st, east boston, MA 2128"
sava's market,150,bennington street,150 bennington street,east boston,MA,2128,suffolk,mg,yes,"150 bennington street, east boston, MA 2128"
ramos market,152,sumner st,152 sumner st,east boston,MA,2128,suffolk,sg,yes,"152 sumner st, east boston, MA 2128"
roy's cold cuts,198,marion street,198 marion street,east boston,MA,2128,suffolk,sg,yes,"198 marion street, east boston, MA 2128"
san francisco de asis market,255,maverick st,255 maverick st,east boston,MA,2128,suffolk,sg,yes,"255 maverick st, east boston, MA 2128"
el condor market,337,paris street,337 paris street,east boston,MA,2128,suffolk,sg,yes,"337 paris street, east boston, MA 2128"
meridian corner mart,357,meridian st,357 meridian st,east boston,MA,2128,suffolk,sg,yes,"357 meridian st, east boston, MA 2128"
diana market,170,cottage st,170 cottage st,east boston,MA,2128,suffolk,sg,yes,"170 cottage st, east boston, MA 2128"
braulio's market,407,meridian st,407 meridian st,east boston,MA,2128,suffolk,sg,yes,"407 meridian st, east boston, MA 2128"
s & h fuel inc.,931,bennington st.,931 bennington st.,east boston,MA,2128,suffolk,co,yes,"931 bennington st., east boston, MA 2128"
confama #1 supermarket,99,chelsea,99 chelsea,east boston,MA,2128,suffolk,cs,yes,"99 chelsea, east boston, MA 2128"
walgreens 05756,1,kelly square,1 kelly square,east boston,MA,2128,suffolk,co,yes,"1 kelly square, east boston, MA 2128"
the corner market,3,gladstone st,3 gladstone st,east boston,MA,2128,suffolk,cs,yes,"3 gladstone st, east boston, MA 2128"
las palmas market,13,chelsea st,13 chelsea st,east boston,MA,2128,suffolk,sg,yes,"13 chelsea st, east boston, MA 2128"
d & m convenience,51,cottage st,51 cottage st,east boston,MA,2128,suffolk,cs,yes,"51 cottage st, east boston, MA 2128"
east boston shell,52,meridian street,52 meridian street,east boston,MA,2128,suffolk,co,yes,"52 meridian street, east boston, MA 2128"
east coast variety,67,bennigton,67 bennigton,east boston,MA,2128,suffolk,cs,yes,"67 bennigton, east boston, MA 2128"
gloria food store,86,cottage,86 cottage,east boston,MA,2128,suffolk,sg,yes,"86 cottage, east boston, MA 2128"
jaquelin grocery store,129,london street,129 london street,east boston,MA,2128,suffolk,sg,yes,"129 london street, east boston, MA 2128"
calderon market,140,princenton st,140 princenton st,east boston,MA,2128,suffolk,mg,yes,"140 princenton st, east boston, MA 2128"
francos place,160,trenton st,160 trenton st,east boston,MA,2128,suffolk,cs,yes,"160 trenton st, east boston, MA 2128"
white hen pantry #1-8002-9,205,maverick street,205 maverick street,east boston,MA,2128,suffolk,cs,yes,"205 maverick street, east boston, MA 2128"
cvs pharmacy 1265,210,border street,210 border street,east boston,MA,2128,suffolk,co,yes,"210 border street, east boston, MA 2128"
rosi's market,232,sumner st,232 sumner st,east boston,MA,2128,suffolk,cs,yes,"232 sumner st, east boston, MA 2128"
shaw's supermarket 7508/388,246,border st,246 border st,east boston,MA,2128,suffolk,ss,yes,"246 border st, east boston, MA 2128"
tienda y taqueria guadalajara,257,princeton st,257 princeton st,east boston,MA,2128,suffolk,sg,yes,"257 princeton st, east boston, MA 2128"
spinelli ravioli mfg co inc,282,bennington street,282 bennington street,east boston,MA,2128,suffolk,co,yes,"282 bennington street, east boston, MA 2128"
cathys market,317,meridian st,317 meridian st,east boston,MA,2128,suffolk,sg,yes,"317 meridian st, east boston, MA 2128"
sumner market inc,345,sumner street,345 sumner street,east boston,MA,2128,suffolk,cs,yes,"345 sumner street, east boston, MA 2128"
el sol food market,353,chelsea st,353 chelsea st,east boston,MA,2128,suffolk,sg,yes,"353 chelsea st, east boston, MA 2128"
m&m variety,465,meridian,465 meridian,east boston,MA,2128,suffolk,cs,yes,"465 meridian, east boston, MA 2128"
cambio latino,984,saratoga st,984 saratoga st,east boston,MA,2128,suffolk,cs,yes,"984 saratoga st, east boston, MA 2128"
orient heights food mart,1016,bennington st,1016 bennington st,east boston,MA,2128,suffolk,cs,yes,"1016 bennington st, east boston, MA 2128"
wolcott general store,171,wolcott sq,171 wolcott sq,hyde park,MA,2136,suffolk,cs,yes,"171 wolcott sq, hyde park, MA 2136"
tedeschis 328,695,truman hwy,695 truman hwy,hyde park,MA,2136,suffolk,cs,yes,"695 truman hwy, hyde park, MA 2136"
hyde park market,853,river st,853 river st,hyde park,MA,2136,suffolk,sg,yes,"853 river st, hyde park, MA 2136"
america's food basket,942,hyde park ave,942 hyde park ave,hyde park,MA,2136,suffolk,ss,yes,"942 hyde park ave, hyde park, MA 2136"
river street mini market,991,river street,991 river street,hyde park,MA,2136,suffolk,cs,yes,"991 river street, hyde park, MA 2136"
neighborhood convenience store,994,hyde park av,994 hyde park av,hyde park,MA,2136,suffolk,cs,yes,"994 hyde park av, hyde park, MA 2136"
stop & shop 047,1025,truman highway,1025 truman highway,hyde park,MA,2136,suffolk,sm,yes,"1025 truman highway, hyde park, MA 2136"
diana market,1070,hyde park ave.,1070 hyde park ave.,hyde park,MA,2136,suffolk,cs,yes,"1070 hyde park ave., hyde park, MA 2136"
store 24 32,1187,hyde park avenue,1187 hyde park avenue,hyde park,MA,2136,suffolk,cs,yes,"1187 hyde park avenue, hyde park, MA 2136"
tedeschis 440,1239,river st,1239 river st,hyde park,MA,2136,suffolk,cs,yes,"1239 river st, hyde park, MA 2136"
i & b market,1244,river st,1244 river st,hyde park,MA,2136,suffolk,sg,yes,"1244 river st, hyde park, MA 2136"
shaw's supermarket 7579/541,1377,hyde park ave,1377 hyde park ave,hyde park,MA,2136,suffolk,ss,yes,"1377 hyde park ave, hyde park, MA 2136"
liriano grocery,1503,river st,1503 river st,hyde park,MA,2136,suffolk,sg,yes,"1503 river st, hyde park, MA 2136"
cvs pharmacy 1049,NA,hyde park ave, hyde park ave,hyde park,MA,2136,suffolk,co,yes," hyde park ave, hyde park, MA 2136"
one stop supermarket,2,hyde park ave,2 hyde park ave,jamaica plain,MA,2130,suffolk,mg,yes,"2 hyde park ave, jamaica plain, MA 2130"
south huntington market inc,12,s huntington av,12 s huntington av,jamaica plain,MA,2130,suffolk,cs,yes,"12 s huntington av, jamaica plain, MA 2130"
forest hill mart,18,hyde park avenue,18 hyde park avenue,jamaica plain,MA,2130,suffolk,cs,yes,"18 hyde park avenue, jamaica plain, MA 2130"
j.p. market,36,gayead street,36 gayead street,jamaica plain,MA,2130,suffolk,sg,yes,"36 gayead street, jamaica plain, MA 2130"
city feed and supply,66,boylston st,66 boylston st,jamaica plain,MA,2130,suffolk,mg,yes,"66 boylston st, jamaica plain, MA 2130"
aislyn meat market,71,day st,71 day st,jamaica plain,MA,2130,suffolk,sg,yes,"71 day st, jamaica plain, MA 2130"
las villas market,78,mozart st,78 mozart st,jamaica plain,MA,2130,suffolk,cs,yes,"78 mozart st, jamaica plain, MA 2130"
fernandez spa liquors inc,128,south street,128 south street,jamaica plain,MA,2130,suffolk,sg,yes,"128 south street, jamaica plain, MA 2130"
el progreso market,143,boylston,143 boylston,jamaica plain,MA,2130,suffolk,sg,yes,"143 boylston, jamaica plain, MA 2130"
dr supermarket,180,hyde park ave,180 hyde park ave,jamaica plain,MA,2130,suffolk,sg,yes,"180 hyde park ave, jamaica plain, MA 2130"
green street supermarket inc,186,green st,186 green st,jamaica plain,MA,2130,suffolk,mg,yes,"186 green st, jamaica plain, MA 2130"
medinas grocery,188,heath st,188 heath st,jamaica plain,MA,2130,suffolk,sg,yes,"188 heath st, jamaica plain, MA 2130"
plaza meat market,207,boylston st,207 boylston st,jamaica plain,MA,2130,suffolk,sg,yes,"207 boylston st, jamaica plain, MA 2130"
j&g market,274,hyde park avenue,274 hyde park avenue,jamaica plain,MA,2130,suffolk,cs,yes,"274 hyde park avenue, jamaica plain, MA 2130"
camilo market,280,centre st,280 centre st,jamaica plain,MA,2130,suffolk,cs,yes,"280 centre st, jamaica plain, MA 2130"
evelyn's market,298,centre st,298 centre st,jamaica plain,MA,2130,suffolk,sg,yes,"298 centre st, jamaica plain, MA 2130"
stop & shop 75,301,centre street,301 centre street,jamaica plain,MA,2130,suffolk,sm,yes,"301 centre street, jamaica plain, MA 2130"
freddy's market inc.,302,centre st,302 centre st,jamaica plain,MA,2130,suffolk,mg,yes,"302 centre st, jamaica plain, MA 2130"
melos grocery,331,centre st,331 centre st,jamaica plain,MA,2130,suffolk,cs,yes,"331 centre st, jamaica plain, MA 2130"
pimental market,340,centre street,340 centre street,jamaica plain,MA,2130,suffolk,mg,yes,"340 centre street, jamaica plain, MA 2130"
santo domingo market,371,centre st,371 centre st,jamaica plain,MA,2130,suffolk,sg,yes,"371 centre st, jamaica plain, MA 2130"
cvs pharmacy 2070,467,center street,467 center street,jamaica plain,MA,2130,suffolk,co,yes,"467 center street, jamaica plain, MA 2130"
"store 24, inc., 85",684,centre st,684 centre st,jamaica plain,MA,2130,suffolk,mg,yes,"684 centre st, jamaica plain, MA 2130"
cvs pharmacy 1264,704,centre street,704 centre street,jamaica plain,MA,2130,suffolk,co,yes,"704 centre street, jamaica plain, MA 2130"
deleon market,3145,washington street,3145 washington street,jamaica plain,MA,2130,suffolk,sg,yes,"3145 washington street, jamaica plain, MA 2130"
latin market,3201,washington st,3201 washington st,jamaica plain,MA,2130,suffolk,cs,yes,"3201 washington st, jamaica plain, MA 2130"
ruggiero's market,3345,washington st,3345 washington st,jamaica plain,MA,2130,suffolk,mg,yes,"3345 washington st, jamaica plain, MA 2130"
yessenias market,3348,washington st,3348 washington st,jamaica plain,MA,2130,suffolk,sg,yes,"3348 washington st, jamaica plain, MA 2130"
jp spot variety,3514,washington st,3514 washington st,jamaica plain,MA,2130,suffolk,sg,yes,"3514 washington st, jamaica plain, MA 2130"
hi-lo-foods,415,centre t,415 centre t,jamaica plains,MA,2130,suffolk,ss,yes,"415 centre t, jamaica plains, MA 2130"
brooks pharmacy 552,90,river st,90 river st,mattapan,MA,2126,suffolk,co,yes,"90 river st, mattapan, MA 2126"
morton mini mart,761,morton street,761 morton street,mattapan,MA,2126,suffolk,cs,yes,"761 morton street, mattapan, MA 2126"
walgreens 03135,825,morton street,825 morton street,mattapan,MA,2126,suffolk,co,yes,"825 morton street, mattapan, MA 2126"
apollo aj's market inc,918,morton street,918 morton street,mattapan,MA,2126,suffolk,cs,yes,"918 morton street, mattapan, MA 2126"
mars farmers mkt inc,926,cummins hwy,926 cummins hwy,mattapan,MA,2126,suffolk,ss,yes,"926 cummins hwy, mattapan, MA 2126"
fernandez cousin grocery,1150,blue hill ave.,1150 blue hill ave.,mattapan,MA,2126,suffolk,cs,yes,"1150 blue hill ave., mattapan, MA 2126"
gonzalez market,1178,bluehill av,1178 bluehill av,mattapan,MA,2126,suffolk,sg,yes,"1178 bluehill av, mattapan, MA 2126"
fernandez liquours #2 & grocery,1216,blue hill ave,1216 blue hill ave,mattapan,MA,2126,suffolk,cs,yes,"1216 blue hill ave, mattapan, MA 2126"
lirianos market,1286,blue hill ave,1286 blue hill ave,mattapan,MA,2126,suffolk,mg,yes,"1286 blue hill ave, mattapan, MA 2126"
ortiz grocery,1300,blue hill ave,1300 blue hill ave,mattapan,MA,2126,suffolk,sg,yes,"1300 blue hill ave, mattapan, MA 2126"
blue hill star,1366,blue hill ave,1366 blue hill ave,mattapan,MA,2126,suffolk,sg,yes,"1366 blue hill ave, mattapan, MA 2126"
blue hill market,1600,blue hill ave,1600 blue hill ave,mattapan,MA,2126,suffolk,sg,yes,"1600 blue hill ave, mattapan, MA 2126"
mattapan fish mkt,NA,blue hill ave, blue hill ave,mattapan,MA,2126,suffolk,mg,yes," blue hill ave, mattapan, MA 2126"
the village market,40,corinth street,40 corinth street,roslindale,MA,2131,suffolk,ss,yes,"40 corinth street, roslindale, MA 2131"
rosa market & restaurant,85,cummins hwy,85 cummins hwy,roslindale,MA,2131,suffolk,cs,yes,"85 cummins hwy, roslindale, MA 2131"
bustoff variety,229,florence,229 florence,roslindale,MA,2131,suffolk,cs,yes,"229 florence, roslindale, MA 2131"
cummins market inc,290,cummins highway,290 cummins highway,roslindale,MA,2131,suffolk,cs,yes,"290 cummins highway, roslindale, MA 2131"
i j convenience & variety store,604,hyde park ave,604 hyde park ave,roslindale,MA,2131,suffolk,sg,yes,"604 hyde park ave, roslindale, MA 2131"
baby nat's fruitland,606,american legion hgway,606 american legion hgway,roslindale,MA,2131,suffolk,mg,yes,"606 american legion hgway, roslindale, MA 2131"
park ave market,631,hyde park ave,631 hyde park ave,roslindale,MA,2131,suffolk,sg,yes,"631 hyde park ave, roslindale, MA 2131"
save-a-lot,650,american legion hwy,650 american legion hwy,roslindale,MA,2131,suffolk,ss,yes,"650 american legion hwy, roslindale, MA 2131"
pisces fish market,690,american legion hwy,690 american legion hwy,roslindale,MA,2131,suffolk,mg,yes,"690 american legion hwy, roslindale, MA 2131"
"henry's quik pik, inc",892,south street,892 south street,roslindale,MA,2131,suffolk,cs,yes,"892 south street, roslindale, MA 2131"
stop & shop 431,950,american legion highway,950 american legion highway,roslindale,MA,2131,suffolk,sm,yes,"950 american legion highway, roslindale, MA 2131"
walgreens 01849,972,american legion hwy,972 american legion hwy,roslindale,MA,2131,suffolk,co,yes,"972 american legion hwy, roslindale, MA 2131"
cibao market,3936,washington st,3936 washington st,roslindale,MA,2131,suffolk,cs,yes,"3936 washington st, roslindale, MA 2131"
liriano brothers,3997,washington st,3997 washington st,roslindale,MA,2131,suffolk,sg,yes,"3997 washington st, roslindale, MA 2131"
li'l peach 403,4196,washington street,4196 washington street,roslindale,MA,2131,suffolk,mg,yes,"4196 washington street, roslindale, MA 2131"
roslindale food mart,4443,washington street,4443 washington street,roslindale,MA,2131,suffolk,cs,yes,"4443 washington street, roslindale, MA 2131"
tropical food mart,4545,washington st,4545 washington st,roslindale,MA,2131,suffolk,mg,yes,"4545 washington st, roslindale, MA 2131"
todescas market,NA,washington st, washington st,roslindale,MA,2131,suffolk,cs,yes," washington st, roslindale, MA 2131"
la plazita variety store,3,blue hill ave.,3 blue hill ave.,roxbury,MA,2119,suffolk,sg,yes,"3 blue hill ave., roxbury, MA 2119"
liriano market,64,blue hill avenue,64 blue hill avenue,roxbury,MA,2119,suffolk,sg,yes,"64 blue hill avenue, roxbury, MA 2119"
walnut market,68,walnut park,68 walnut park,roxbury,MA,2119,suffolk,cs,yes,"68 walnut park, roxbury, MA 2119"
hillside market,82,hillside st,82 hillside st,roxbury,MA,2120,suffolk,cs,yes,"82 hillside st, roxbury, MA 2120"
grovers variety,93,burrell st,93 burrell st,roxbury,MA,2119,suffolk,sg,yes,"93 burrell st, roxbury, MA 2119"
izzys corner variety,100,hammond st,100 hammond st,roxbury,MA,2119,suffolk,cs,yes,"100 hammond st, roxbury, MA 2119"
claudia market inc.,160,humboldt ave,160 humboldt ave,roxbury,MA,2119,suffolk,sg,yes,"160 humboldt ave, roxbury, MA 2119"
browns market,194,dudley street,194 dudley street,roxbury,MA,2119,suffolk,mg,yes,"194 dudley street, roxbury, MA 2119"
central convenience grocery,218,blue hill ave,218 blue hill ave,roxbury,MA,2119,suffolk,cs,yes,"218 blue hill ave, roxbury, MA 2119"
sister grocery store,219,dudley st,219 dudley st,roxbury,MA,2119,suffolk,sg,yes,"219 dudley st, roxbury, MA 2119"
ginas grocery,251,dudley st,251 dudley st,roxbury,MA,2119,suffolk,sg,yes,"251 dudley st, roxbury, MA 2119"
warren supermarket,256,warren street,256 warren street,roxbury,MA,2119,suffolk,sg,yes,"256 warren street, roxbury, MA 2119"
nunez market,305,dudley st,305 dudley st,roxbury,MA,2119,suffolk,sg,yes,"305 dudley st, roxbury, MA 2119"
save-a-lot,333,martin luther king jr blv,333 martin luther king jr blv,roxbury,MA,2119,suffolk,ss,yes,"333 martin luther king jr blv, roxbury, MA 2119"
quick stop,338,warren st,338 warren st,roxbury,MA,2119,suffolk,cs,yes,"338 warren st, roxbury, MA 2119"
plensa african market,373,blue hill ave,373 blue hill ave,roxbury,MA,2121,suffolk,sg,yes,"373 blue hill ave, roxbury, MA 2121"
u & i bargain unlimited,394,warren st,394 warren st,roxbury,MA,2119,suffolk,cs,yes,"394 warren st, roxbury, MA 2119"
walgreens 03016,416,warren street,416 warren street,roxbury,MA,2119,suffolk,co,yes,"416 warren street, roxbury, MA 2119"
davey's supermarket,438,dudley street,438 dudley street,roxbury,MA,2119,suffolk,cs,yes,"438 dudley street, roxbury, MA 2119"
super stop & shop 459,460,blue hill ave,460 blue hill ave,roxbury,MA,2122,suffolk,sm,yes,"460 blue hill ave, roxbury, MA 2122"
luis market,517,warren street,517 warren street,roxbury,MA,2121,suffolk,cs,yes,"517 warren street, roxbury, MA 2121"
"la borinquena grocery (j.a.,inc.)",534,dudley street,534 dudley street,roxbury,MA,2119,suffolk,cs,yes,"534 dudley street, roxbury, MA 2119"
villa sombrero dollar store & plu,543,dudley st,543 dudley st,roxbury,MA,2119,suffolk,cs,yes,"543 dudley st, roxbury, MA 2119"
bohio market,718,shawmut ave,718 shawmut ave,roxbury,MA,2119,suffolk,cs,yes,"718 shawmut ave, roxbury, MA 2119"
wan convenient store inc,1508,tremont st,1508 tremont st,roxbury,MA,2120,suffolk,cs,yes,"1508 tremont st, roxbury, MA 2120"
walgreens 4072,1890,columbia ave,1890 columbia ave,roxbury,MA,2119,suffolk,co,yes,"1890 columbia ave, roxbury, MA 2119"
columbus market,1909,columbus ave.,1909 columbus ave.,roxbury,MA,2119,suffolk,sg,yes,"1909 columbus ave., roxbury, MA 2119"
friends deli market,1989,columbus ave,1989 columbus ave,roxbury,MA,2119,suffolk,sg,yes,"1989 columbus ave, roxbury, MA 2119"
tropical foods international inc,2101,washington st,2101 washington st,roxbury,MA,2119,suffolk,ss,yes,"2101 washington st, roxbury, MA 2119"
walgreens 09538,2275,washington st,2275 washington st,roxbury,MA,2119,suffolk,co,yes,"2275 washington st, roxbury, MA 2119"
n&m market,2359,washington street,2359 washington street,roxbury,MA,2119,suffolk,cs,yes,"2359 washington street, roxbury, MA 2119"
ja fernandez inc,2665,washington st,2665 washington st,roxbury,MA,2119,suffolk,cs,yes,"2665 washington st, roxbury, MA 2119"
new academy market,2981,washington st,2981 washington st,roxbury,MA,2119,suffolk,sg,yes,"2981 washington st, roxbury, MA 2119"
la peraviana inc.,3095,washington street,3095 washington street,roxbury,MA,2119,suffolk,sg,yes,"3095 washington street, roxbury, MA 2119"
"4-m market inc.,",3114,washington street,3114 washington street,roxbury,MA,2119,suffolk,mg,yes,"3114 washington street, roxbury, MA 2119"
fuentes market,NA,parker street, parker street,roxbury,MA,2120,suffolk,lg,yes," parker street, roxbury, MA 2120"
j & j discount mini mart,131,w. broadway,131 w. broadway,south  boston,MA,2127,suffolk,cs,yes,"131 w. broadway, south  boston, MA 2127"
llanera supermarket,258,e 8th st #260,258 e 8th st #260,south  boston,MA,2127,suffolk,sg,yes,"258 e 8th st #260, south  boston, MA 2127"
kims market,305,w broadway,305 w broadway,south  boston,MA,2127,suffolk,cs,yes,"305 w broadway, south  boston, MA 2127"
rotary variety,309,old colony ave,309 old colony ave,south  boston,MA,2127,suffolk,cs,yes,"309 old colony ave, south  boston, MA 2127"
family market,334,e 8th st,334 e 8th st,south  boston,MA,2127,suffolk,cs,yes,"334 e 8th st, south  boston, MA 2127"
li'l peach 402,NA,dorchester ave, dorchester ave,south  boston,MA,2127,suffolk,cs,yes," dorchester ave, south  boston, MA 2127"
super stop and shop 053,713,e. broadway,713 e. broadway,south  boston,MA,2127,suffolk,sm,yes,"713 e. broadway, south  boston, MA 2127"
store 24 29,405,w broadway,405 w broadway,south  boston,MA,2127,suffolk,mg,yes,"405 w broadway, south  boston, MA 2127"
bell's cash market inc,246,dorchester st,246 dorchester st,south  boston,MA,2127,suffolk,mg,yes,"246 dorchester st, south  boston, MA 2127"
neighborhood convenience store,165,d st,165 d st,south boston,MA,2127,suffolk,cs,yes,"165 d st, south boston, MA 2127"
b and 4th street variety,178,west 4th st,178 west 4th st,south boston,MA,2127,suffolk,sg,yes,"178 west 4th st, south boston, MA 2127"
baileys too,354,west broadway,354 west broadway,south boston,MA,2127,suffolk,cs,yes,"354 west broadway, south boston, MA 2127"
8th street market,362,k street,362 k street,south boston,MA,2127,suffolk,mg,yes,"362 k street, south boston, MA 2127"
cvs pharmacy 979,423,west broadway,423 west broadway,south boston,MA,2127,suffolk,co,yes,"423 west broadway, south boston, MA 2127"
store 24 35,555,e broadway,555 e broadway,south boston,MA,2127,suffolk,cs,yes,"555 e broadway, south boston, MA 2127"
7-eleven 33592a,673,east broadway,673 east broadway,south boston,MA,2127,suffolk,cs,yes,"673 east broadway, south boston, MA 2127"
brooks pharmacy 573,710,e broadway,710 e broadway,south boston,MA,2127,suffolk,co,yes,"710 e broadway, south boston, MA 2127"
shaw's supermarket 7577/539,75,spring st,75 spring st,west roxbury,MA,2132,suffolk,ss,yes,"75 spring st, west roxbury, MA 2132"
roche bros supermarket 115,1800,center st,1800 center st,west roxbury,MA,2132,suffolk,ss,yes,"1800 center st, west roxbury, MA 2132"
cvs pharmacy 117,1921,centre street,1921 centre street,west roxbury,MA,2132,suffolk,co,yes,"1921 centre street, west roxbury, MA 2132"